[
    {
        "Altitude(m)": 707176.9732009214,
        "Argument of Periapsis(deg)": 0.0,
        "Eccentricity": 0.0,
        "Inclination(deg)": 45.0,
        "Latitude(deg)": 44.572927848770036,
        "Longitude(deg)": 133.5255445805703,
        "Mean Anomaly(deg)": 81.81820000000003,
        "RAAN(deg)": 155.0,
        "Satellite Name": "Constellation 1 687",
        "Satellite Number": 687,
        "Semi-Major Axis(m)": 7083131.272910544,
        "Time(s)": 0
    },
    {
        "Altitude(m)": 707178.9102082404,
        "Argument of Periapsis(deg)": 5.994800624540561e-05,
        "Eccentricity": 0.0,
        "Inclination(deg)": 45.0,
        "Latitude(deg)": 44.58147618399634,
        "Longitude(deg)": 133.60563139006126,
        "Mean Anomaly(deg)": 81.87890114024987,
        "RAAN(deg)": 154.99994341083445,
        "Satellite Name": "Constellation 1 687",
        "Satellite Number": 687,
        "Semi-Major Axis(m)": 7083131.272910544,
        "Time(s)": 1
    },
    {
        "Altitude(m)": 707180.8333362165,
        "Argument of Periapsis(deg)": 0.00011989601249081122,
        "Eccentricity": 0.0,
        "Inclination(deg)": 45.0,
        "Latitude(deg)": 44.589962446672196,
        "Longitude(deg)": 133.685742770899,
        "Mean Anomaly(deg)": 81.93960228049983,
        "RAAN(deg)": 154.99988682166887,
        "Satellite Name": "Constellation 1 687",
        "Satellite Number": 687,
        "Semi-Major Axis(m)": 7083131.272910544,
        "Time(s)": 2
    },
    {
        "Altitude(m)": 707182.7425736063,
        "Argument of Periapsis(deg)": 0.00017984401873621686,
        "Eccentricity": 0.0,
        "Inclination(deg)": 45.0,
        "Latitude(deg)": 44.59838660068761,
        "Longitude(deg)": 133.7658785583078,
        "Mean Anomaly(deg)": 82.00030342074972,
        "RAAN(deg)": 154.99983023250329,
        "Satellite Name": "Constellation 1 687",
        "Satellite Number": 687,
        "Semi-Major Axis(m)": 7083131.272910544,
        "Time(s)": 3
    },
    {
        "Altitude(m)": 707184.637909251,
        "Argument of Periapsis(deg)": 0.00023979202498162244,
        "Eccentricity": 0.0,
        "Inclination(deg)": 45.0,
        "Latitude(deg)": 44.60674861017073,
        "Longitude(deg)": 133.84603858710403,
        "Mean Anomaly(deg)": 82.06100456099958,
        "RAAN(deg)": 154.9997736433377,
        "Satellite Name": "Constellation 1 687",
        "Satellite Number": 687,
        "Semi-Major Axis(m)": 7083131.272910544,
        "Time(s)": 4
    },
    {
        "Altitude(m)": 707186.5193320657,
        "Argument of Periapsis(deg)": 0.00029974003122702807,
        "Eccentricity": 0.0,
        "Inclination(deg)": 45.0,
        "Latitude(deg)": 44.61504843948858,
        "Longitude(deg)": 133.92622269169732,
        "Mean Anomaly(deg)": 82.12170570124947,
        "RAAN(deg)": 154.99971705417215,
        "Satellite Name": "Constellation 1 687",
        "Satellite Number": 687,
        "Semi-Major Axis(m)": 7083131.272910544,
        "Time(s)": 5
    },
    {
        "Altitude(m)": 707188.3868310604,
        "Argument of Periapsis(deg)": 0.00035968803747243373,
        "Eccentricity": 0.0,
        "Inclination(deg)": 45.0,
        "Latitude(deg)": 44.62328605324776,
        "Longitude(deg)": 134.00643070609362,
        "Mean Anomaly(deg)": 82.1824068414994,
        "RAAN(deg)": 154.9996604650066,
        "Satellite Name": "Constellation 1 687",
        "Satellite Number": 687,
        "Semi-Major Axis(m)": 7083131.272910544,
        "Time(s)": 6
    },
    {
        "Altitude(m)": 707190.240395321,
        "Argument of Periapsis(deg)": 0.00041963604371783933,
        "Eccentricity": 0.0,
        "Inclination(deg)": 45.0,
        "Latitude(deg)": 44.631461416295274,
        "Longitude(deg)": 134.0866622957997,
        "Mean Anomaly(deg)": 82.24310798174932,
        "RAAN(deg)": 154.99960387584102,
        "Satellite Name": "Constellation 1 687",
        "Satellite Number": 687,
        "Semi-Major Axis(m)": 7083131.272910544,
        "Time(s)": 7
    },
    {
        "Altitude(m)": 707192.0800140102,
        "Argument of Periapsis(deg)": 0.0004795840499632449,
        "Eccentricity": 0.0,
        "Inclination(deg)": 45.0,
        "Latitude(deg)": 44.63957449371857,
        "Longitude(deg)": 134.16691763021495,
        "Mean Anomaly(deg)": 82.3038091219992,
        "RAAN(deg)": 154.99954728667544,
        "Satellite Name": "Constellation 1 687",
        "Satellite Number": 687,
        "Semi-Major Axis(m)": 7083131.272910544,
        "Time(s)": 8
    },
    {
        "Altitude(m)": 707193.9056763848,
        "Argument of Periapsis(deg)": 0.0005395320562086505,
        "Eccentricity": 0.0,
        "Inclination(deg)": 45.0,
        "Latitude(deg)": 44.64762525084725,
        "Longitude(deg)": 134.2471963740502,
        "Mean Anomaly(deg)": 82.36451026224908,
        "RAAN(deg)": 154.99949069750988,
        "Satellite Name": "Constellation 1 687",
        "Satellite Number": 687,
        "Semi-Major Axis(m)": 7083131.272910544,
        "Time(s)": 9
    },
    {
        "Altitude(m)": 707195.7173717722,
        "Argument of Periapsis(deg)": 0.0005994800624540561,
        "Eccentricity": 0.0,
        "Inclination(deg)": 45.0,
        "Latitude(deg)": 44.65561365325313,
        "Longitude(deg)": 134.32749835971904,
        "Mean Anomaly(deg)": 82.425211402499,
        "RAAN(deg)": 154.9994341083443,
        "Satellite Name": "Constellation 1 687",
        "Satellite Number": 687,
        "Semi-Major Axis(m)": 7083131.272910544,
        "Time(s)": 10
    },
    {
        "Altitude(m)": 707197.5150895879,
        "Argument of Periapsis(deg)": 0.0006594280686994618,
        "Eccentricity": 0.0,
        "Inclination(deg)": 45.0,
        "Latitude(deg)": 44.66353966675101,
        "Longitude(deg)": 134.40782341924282,
        "Mean Anomaly(deg)": 82.48591254274888,
        "RAAN(deg)": 154.99937751917875,
        "Satellite Name": "Constellation 1 687",
        "Satellite Number": 687,
        "Semi-Major Axis(m)": 7083131.272910544,
        "Time(s)": 11
    },
    {
        "Altitude(m)": 707199.2988193332,
        "Argument of Periapsis(deg)": 0.0007193760749448675,
        "Eccentricity": 0.0,
        "Inclination(deg)": 45.0,
        "Latitude(deg)": 44.671403257399355,
        "Longitude(deg)": 134.48817138425346,
        "Mean Anomaly(deg)": 82.5466136829988,
        "RAAN(deg)": 154.99932093001314,
        "Satellite Name": "Constellation 1 687",
        "Satellite Number": 687,
        "Semi-Major Axis(m)": 7083131.272910544,
        "Time(s)": 12
    },
    {
        "Altitude(m)": 707201.0685505848,
        "Argument of Periapsis(deg)": 0.000779324081190273,
        "Eccentricity": 0.0,
        "Inclination(deg)": 45.0,
        "Latitude(deg)": 44.67920439150101,
        "Longitude(deg)": 134.56854208599538,
        "Mean Anomaly(deg)": 82.60731482324874,
        "RAAN(deg)": 154.9992643408476,
        "Satellite Name": "Constellation 1 687",
        "Satellite Number": 687,
        "Semi-Major Axis(m)": 7083131.272910544,
        "Time(s)": 13
    },
    {
        "Altitude(m)": 707202.8242730082,
        "Argument of Periapsis(deg)": 0.0008392720874356787,
        "Eccentricity": 0.0,
        "Inclination(deg)": 45.0,
        "Latitude(deg)": 44.68694303560386,
        "Longitude(deg)": 134.6489353553285,
        "Mean Anomaly(deg)": 82.66801596349858,
        "RAAN(deg)": 154.99920775168204,
        "Satellite Name": "Constellation 1 687",
        "Satellite Number": 687,
        "Semi-Major Axis(m)": 7083131.272910544,
        "Time(s)": 14
    },
    {
        "Altitude(m)": 707204.5659763452,
        "Argument of Periapsis(deg)": 0.0008992200936810842,
        "Eccentricity": 0.0,
        "Inclination(deg)": 45.0,
        "Latitude(deg)": 44.69461915650169,
        "Longitude(deg)": 134.7293508546331,
        "Mean Anomaly(deg)": 82.72871710374848,
        "RAAN(deg)": 154.99915116251645,
        "Satellite Name": "Constellation 1 687",
        "Satellite Number": 687,
        "Semi-Major Axis(m)": 7083131.272910544,
        "Time(s)": 15
    },
    {
        "Altitude(m)": 707206.2936504309,
        "Argument of Periapsis(deg)": 0.0009591680999264898,
        "Eccentricity": 0.0,
        "Inclination(deg)": 45.0,
        "Latitude(deg)": 44.702232721234,
        "Longitude(deg)": 134.8097887502015,
        "Mean Anomaly(deg)": 82.78941824399837,
        "RAAN(deg)": 154.9990945733509,
        "Satellite Name": "Constellation 1 687",
        "Satellite Number": 687,
        "Semi-Major Axis(m)": 7083131.272910544,
        "Time(s)": 16
    },
    {
        "Altitude(m)": 707208.0072851636,
        "Argument of Periapsis(deg)": 0.0010191161061718953,
        "Eccentricity": 0.0,
        "Inclination(deg)": 45.0,
        "Latitude(deg)": 44.70978369708801,
        "Longitude(deg)": 134.89024870365685,
        "Mean Anomaly(deg)": 82.8501193842483,
        "RAAN(deg)": 154.99903798418535,
        "Satellite Name": "Constellation 1 687",
        "Satellite Number": 687,
        "Semi-Major Axis(m)": 7083131.272910544,
        "Time(s)": 17
    },
    {
        "Altitude(m)": 707209.7068705476,
        "Argument of Periapsis(deg)": 0.001079064112417301,
        "Eccentricity": 0.0,
        "Inclination(deg)": 45.0,
        "Latitude(deg)": 44.71727205159828,
        "Longitude(deg)": 134.9707305443448,
        "Mean Anomaly(deg)": 82.91082052449822,
        "RAAN(deg)": 154.99898139501974,
        "Satellite Name": "Constellation 1 687",
        "Satellite Number": 687,
        "Semi-Major Axis(m)": 7083131.272910544,
        "Time(s)": 18
    }
]